STARLINK-4011           
1 52615U 22052T   23114.70419586  .00015050  00000+0  96060-3 0  9995
2 52615  53.2161 317.6890 0001148  64.0782 296.0329 15.08880501 52648
STARLINK-4015           
1 52616U 22052U   23114.97973130  .00016660  00000+0  10610-2 0  9999
2 52616  53.2165 301.4509 0001215  75.0281 285.0846 15.08886620 52899
STARLINK-3996           
1 52617U 22052V   23115.50231522 -.00028788  00000+0 -18005-2 0  9994
2 52617  53.2153 299.1069 0001111  67.9719 292.1391 15.08788180 52977
STARLINK-3983           
1 52618U 22052W   23115.24102197 -.00004784  00000+0 -28270-3 0  9997
2 52618  53.2151 300.2801 0001998  73.5541 286.5671 15.08837714 52935
STARLINK-3741           
1 52619U 22052X   23115.49862583 -.00024732  00000+0 -15430-2 0  9995
2 52619  53.2148 299.1079 0000943 118.4845 241.6243 15.08797965 52974
STARLINK-3975           
1 52620U 22052Y   23114.70051558  .00019405  00000+0  12326-2 0  9992
2 52620  53.2173 317.7024 0001093 107.1116 252.9996 15.08880541 52641
STARLINK-3984           
1 52621U 22052Z   23114.96132754  .00009802  00000+0  63238-3 0  9998
2 52621  53.2143 301.5317 0000927  77.1782 282.9313 15.08880044 52896
STARLINK-4008           
1 52622U 22052AA  23115.52484762 -.00007727  00000+0 -46820-3 0  9995
2 52622  53.2152 314.0018 0001990  94.5419 265.5800 15.08816662 52775
STARLINK-3986           
1 52623U 22052AB  23115.22261950 -.00023352  00000+0 -14545-2 0  9995
2 52623  53.2160 300.3621 0000862 112.6832 247.4251 15.08825767 52934
STARLINK-4009           
1 52624U 22052AC  23115.16468951 -.00053377  00000+0 -33648-2 0  9994
2 52624  53.2162 300.6017 0001576 104.1686 255.9481 15.08795028 52929
STARLINK-3988           
1 52625U 22052AD  23115.21893812 -.00036431  00000+0 -22847-2 0  9990
2 52625  53.2177 300.3759 0001160 189.4085 170.6886 15.08805578 52939
STARLINK-3990           
1 52626U 22052AE  23115.22997314 -.00027764  00000+0 -17342-2 0  9997
2 52626  53.2153 300.3239 0001086  96.2855 263.8261 15.08817420 52935
STARLINK-3992           
1 52627U 22052AF  23114.01558584  .00009935  00000+0  64107-3 0  9996
2 52627  53.2164 305.7792 0001224  85.9782 274.1350 15.08859123 52388
STARLINK-4001           
1 52628U 22052AG  23113.86516875  .00001430  00000+0  10787-3 0  9993
2 52628  53.2177 321.4547 0000919  73.3675 286.7418 15.08846361 52146
STARLINK-4022           
1 52629U 22052AH  23113.94662862  .00003211  00000+0  21968-3 0  9993
2 52629  53.2158 306.0973 0001121  72.6466 287.4649 15.08847769 52365
STARLINK-3989           
1 52630U 22052AJ  23115.21526325 -.00000923  00000+0 -39898-4 0  9991
2 52630  53.2148 300.3976 0000683 108.5934 251.5133 15.08841054 52931
STARLINK-3794           
1 52631U 22052AK  23114.80309435  .00008936  00000+0  57835-3 0  9997
2 52631  53.2161 302.2450 0000971  76.6820 283.4281 15.08871015 52875
STARLINK-3995           
1 52632U 22052AL  23115.21158679 -.00017396  00000+0 -10779-2 0  9993
2 52632  53.2168 300.4107 0002562  97.0166 263.1118 15.08824692 52930
STARLINK-3994           
1 52633U 22052AM  23114.99076961  .00012172  00000+0  78073-3 0  9998
2 52633  53.2171 301.3990 0000747 105.8406 254.2668 15.08878419 52907
STARLINK-3974           
1 52634U 22052AN  23115.53543997 -.00019629  00000+0 -12200-2 0  9993
2 52634  53.2198 298.9889 0001529  94.1882 265.9284 15.08798134 52988
STARLINK-3978           
1 52635U 22052AP  23115.50324211 -.00005002  00000+0 -29666-3 0  9992
2 52635  53.2166 289.1030 0001992 309.6132  50.4684 15.08804086 53111
STARLINK-3967           
1 52636U 22052AQ  23114.99812953  .00016486  00000+0  10503-2 0  9995
2 52636  53.2154 301.3670 0000900  67.3450 292.7637 15.08881499 52903
STARLINK-3961           
1 52637U 22052AR  23114.77089314  .00007891  00000+0  51295-3 0  9993
2 52637  53.2172 292.3891 0000409 350.8079   9.2906 15.08867571 53006
STARLINK-3941           
1 52638U 22052AS  23115.52438905 -.00009476  00000+0 -57853-3 0  9991
2 52638  53.2154 299.0026 0001521 106.9249 253.1910 15.08809535 52983
STARLINK-3968           
1 52639U 22052AT  23115.22354086 -.00007511  00000+0 -45445-3 0  9998
2 52639  53.2167 290.3561 0001287  84.5258 275.5881 15.08827670 53072
STARLINK-3977           
1 52640U 22052AU  23115.50692342 -.00024534  00000+0 -15310-2 0  9992
2 52640  53.2156 289.1127 0000579  98.0211 262.0847 15.08785311 53111
STARLINK-3991           
1 52641U 22052AV  23114.22626651  .00006936  00000+0  45316-3 0  9995
2 52641  53.2159 294.8340 0000766  61.2104 298.8965 15.08863336 52555
STARLINK-3971           
1 52642U 22052AW  23115.49587148 -.00023348  00000+0 -14551-2 0  9997
2 52642  53.2151 289.1344 0001643 116.4777 243.6383 15.08803199 53119
STARLINK-3963           
1 52643U 22052AX  23115.47107037 -.00007016  00000+0 -42336-3 0  9998
2 52643  53.2127 289.2178 0002433  73.8487 286.2773 15.08815836 53118
STARLINK-3985           
1 52644U 22052AY  23115.49219858 -.00015110  00000+0 -93427-3 0  9997
2 52644  53.2172 289.1479 0001139 101.8361 258.2758 15.08801519 53112
STARLINK-3973           
1 52645U 22052AZ  23115.48116423 -.00029879  00000+0 -18694-2 0  9990
2 52645  53.2154 289.3041 0001391  84.4000 275.7151 15.08793700 53119
STARLINK-3832           
1 52646U 22052BA  23115.48213091 -.00009988  00000+0 -61109-3 0  9999
2 52646  53.2164 289.2027 0001217  98.4852 261.6278 15.08794398 53119
STARLINK-3846           
1 52647U 22052BB  23115.47380746 -.00029221  00000+0 -18280-2 0  9994
2 52647  53.2162 289.3366 0001085  94.1144 265.9972 15.08788649 53115
STARLINK-3854           
1 52648U 22052BC  23114.48386470  .00017835  00000+0  11347-2 0  9998
2 52648  53.2158 293.6733 0001189  77.3668 282.7457 15.08877720 52580
STARLINK-3868           
1 52649U 22052BD  23114.78927004  .00018304  00000+0  11635-2 0  9998
2 52649  53.2153 292.1580 0000650  58.7131 301.3925 15.08891032 53019
STARLINK-3891           
1 52650U 22052BE  23114.58334491 -.00026547  00000+0 -17313-2 0  9999
2 52650  53.2163 283.2411 0001211  89.8482  93.3206 15.07216369  1302
STARLINK-4004           
1 52656U 22053A   23113.52753396  .00023774  00000+0  15069-2 0  9991
2 52656  53.2139 192.9717 0001299  82.5547 277.5592 15.08837385 52425
STARLINK-4084           
1 52657U 22053B   23115.52208904 -.00012541  00000+0 -77207-3 0  9999
2 52657  53.2147 184.0128 0001896 130.5740 229.5417 15.08798954 53023
STARLINK-4082           
1 52658U 22053C   23114.92223834 -.00014726  00000+0 -90991-3 0  9994
2 52658  53.2172 186.7110 0000482 118.0223 242.0818 15.08806795 52756
STARLINK-3960           
1 52659U 22053D   23115.45313232 -.00012173  00000+0 -74885-3 0  9994
2 52659  53.2135 184.3255 0001560  57.3326 302.7817 15.08801095 52837
STARLINK-4081           
1 52660U 22053E   23115.44481986  .00011138  00000+0  71814-3 0  9994
2 52660  53.2148 184.3655 0001425  93.8867 266.2288 15.08770015 52712
STARLINK-4042           
1 52661U 22053F   23115.44113204  .00000720  00000+0  63423-4 0  9993
2 52661  53.2130 184.3816 0001205  56.2207 303.8900 15.08792624 52641
STARLINK-4044           
1 52662U 22053G   23115.43377979  .00010277  00000+0  66386-3 0  9992
2 52662  53.2161 184.4105 0001341 133.8671 226.2432 15.08783134 52640
STARLINK-4037           
1 52663U 22053H   23115.43008719 -.00009215  00000+0 -56200-3 0  9992
2 52663  53.2143 184.4299 0001324 131.0398 229.0709 15.08817620 52648
STARLINK-4070           
1 52664U 22053J   23115.43744290 -.00010112  00000+0 -61851-3 0  9990
2 52664  53.2151 184.3934 0001321 123.8260 236.2858 15.08818782 52642
STARLINK-4064           
1 52665U 22053K   23114.22672345  .00037088  00000+0  23323-2 0  9998
2 52665  53.2155 189.8273 0001322  89.5907 270.5236 15.08900795 52467
STARLINK-4079           
1 52666U 22053L   23115.42737437  .00011186  00000+0  72096-3 0  9999
2 52666  53.2147 184.4517 0001265 102.3025 257.8108 15.08780236 52644
STARLINK-4076           
1 52667U 22053M   23115.41537527  .00013826  00000+0  88640-3 0  9992
2 52667  53.2144 184.4934 0001678 128.3406 231.7737 15.08784816 52641
STARLINK-4067           
1 52668U 22053N   23114.89279147  .00013293  00000+0  85327-3 0  9992
2 52668  53.2147 186.8386 0001063 119.4086 240.7013 15.08771536 52568
STARLINK-3972           
1 52669U 22053P   23114.54319567  .00061040  00000+0  38106-2 0  9991
2 52669  53.2148 188.4066 0001788  78.2144 281.9049 15.08933389 52500
STARLINK-4075           
1 52670U 22053Q   23114.16785593  .00034400  00000+0  21662-2 0  9996
2 52670  53.2149 190.1589 0001076  82.4856 277.6258 15.08887081 52028
STARLINK-4071           
1 52671U 22053R   23114.93695372  .00008313  00000+0  53930-3 0  9995
2 52671  53.2152 186.6433 0001274  81.8595 278.2541 15.08870981 52140
STARLINK-4073           
1 52672U 22053S   23115.41169700 -.00004715  00000+0 -27851-3 0  9998
2 52672  53.2149 184.5106 0001328 112.5816 247.5317 15.08818767 52200
STARLINK-3976           
1 52673U 22053T   23115.45953166 -.00011445  00000+0 -70276-3 0  9997
2 52673  53.2143 184.2956 0001622  59.0141 301.1010 15.08806053 52211
STARLINK-3936           
1 52674U 22053U   23115.47423540  .00008090  00000+0  52597-3 0  9994
2 52674  53.2162 184.2332 0001179  89.0360 271.0767 15.08827092 52214
STARLINK-3934           
1 52675U 22053V   23115.39052589 -.00011570  00000+0 -71054-3 0  9995
2 52675  53.2138 174.6027 0002501 131.2852 228.8356 15.08808725 52337
STARLINK-4006           
1 52676U 22053W   23115.46322789 -.00007063  00000+0 -42651-3 0  9999
2 52676  53.2156 184.2799 0001391 117.1851 242.9283 15.08806506 52217
STARLINK-4028           
1 52677U 22053X   23115.44942000 -.00018210  00000+0 -11304-2 0  9998
2 52677  53.2154 174.3422 0001165  97.6722 262.4402 15.08794644 52340
STARLINK-4074           
1 52678U 22053Y   23115.39149129 -.00009948  00000+0 -60820-3 0  9990
2 52678  53.2163 174.6042 0001412 105.3249 254.7899 15.08814989 52336
